STARLINK-1740
1 16566C 20070AL  21326.13245241 -.00022260  00000-0 -14911-2 0  3268
2 16566  53.0534 358.1597 0001507  58.8543  32.1348 15.06428026    19
